GLOBALSTAR M084 [+]     
1 38040U 11080A   24058.17948071 -.00000099  00000+0  28859-4 0  9995
2 38040  52.0013  57.6137 0000637  90.9182 348.4437 12.62271385562836
GLOBALSTAR M080 [+]     
1 38041U 11080B   24058.15248792 -.00000101  00000+0  14050-4 0  9999
2 38041  52.0064  59.1361 0000710  75.8313   0.0979 12.62269461562811
GLOBALSTAR M082 [+]     
1 38042U 11080C   24058.17200964 -.00000105  00000+0 -91082-5 0  9997
2 38042  52.0101  14.4727 0000314 189.6296 275.4221 12.62266091563554
GLOBALSTAR M092 [+]     
1 38043U 11080D   24058.12668135 -.00000079  00000+0  14078-3 0  9998
2 38043  52.0077 104.9646 0000731 119.8420 258.1406 12.62276841562049
GLOBALSTAR M090 [+]     
1 38044U 11080E   24058.03396225 -.00000094  00000+0  55749-4 0  9995
2 38044  51.9913   9.3139 0000177  93.7349 344.6833 12.62266424563521
GLOBALSTAR M086 [+]     
1 38045U 11080F   24058.06093737 -.00000095  00000+0  48952-4 0  9990
2 38045  51.9924   9.7469 0001055   7.3984  72.9890 12.62267561563534
GLOBALSTAR M097 [+]     
1 39072U 13005A   24057.91123774 -.00000080  00000+0  13508-3 0  9990
2 39072  52.0039 284.2684 0000588  63.2640 296.8287 12.62261132510664
GLOBALSTAR M093 [+]     
1 39073U 13005B   24057.88469845 -.00000088  00000+0  89264-4 0  9990
2 39073  51.9799 278.4138 0000536  55.7849 304.3068 12.62261536510610
